NORAD_CAT_ID,OBJECT_NAME,OBJECT_TYPE,EPOCH,MEAN_MOTION,ECCENTRICITY,INCLINATION,RA_OF_ASC_NODE,ARG_OF_PERICENTER,MEAN_ANOMALY,BSTAR,MEAN_MOTION_DOT,MEAN_MOTION_DDOT,TLE_LINE0,TLE_LINE1,TLE_LINE2,SEMIMAJOR_AXIS,PERIOD,APOGEE,PERIGEE,DECAYED
52268.0,STARLINK-3746,PAYLOAD,2023-12-05 18:59:19,15.08845934,8.95e-05,53.2154,212.1591,97.368,262.7414,0.00022888,3.357e-05,0.0,0 STARLINK-3746,1 52268U 22041H   23339.79119511  .00003357  00000-0  22888-3 0  9995,2 52268  53.2154 212.1591 0000895  97.3680 262.7414 15.08845934 91059,6917.862,95.437,540.346,539.108,0.0
52268.0,STARLINK-3746,PAYLOAD,2023-12-06 01:20:51,15.08839783,0.0001374,53.2151,210.968,95.6171,264.4978,9.6131e-05,1.242e-05,0.0,0 STARLINK-3746,1 52268U 22041H   23340.05615632  .00001242  00000-0  96131-4 0  9995,2 52268  53.2151 210.9680 0001374  95.6171 264.4978 15.08839783 91093,6917.881,95.438,540.697,538.796,0.0
52268.0,STARLINK-3746,PAYLOAD,2023-12-06 17:14:43,15.08838059,0.0001137,53.2163,207.9963,79.5112,280.6008,0.00040032,6.089e-05,0.0,0 STARLINK-3746,1 52268U 22041H   23340.71855676  .00006089  00000-0  40032-3 0  9994,2 52268  53.2163 207.9963 0001137  79.5112 280.6008 15.08838059 89972,6917.886,95.438,540.538,538.965,0.0
52268.0,STARLINK-3746,PAYLOAD,2023-12-07 01:11:39,15.08836457,0.0001378,53.2157,206.5073,92.9782,267.1367,0.0008208,0.00012798,0.0,0 STARLINK-3746,1 52268U 22041H   23341.04975873  .00012798  00000-0  82080-3 0  9996,2 52268  53.2157 206.5073 0001378  92.9782 267.1367 15.08836457 90027,6917.891,95.438,540.71,538.803,0.0
52268.0,STARLINK-3746,PAYLOAD,2023-12-07 18:40:52,15.08841465,0.0001077,53.2153,203.2391,69.1538,290.957,5.935e-05,6.57e-06,0.0,0 STARLINK-3746,1 52268U 22041H   23341.77839065  .00000657  00000-0  59350-4 0  9994,2 52268  53.2153 203.2391 0001077  69.1538 290.9570 15.08841465 91353,6917.876,95.437,540.486,538.996,0.0
52268.0,STARLINK-3746,PAYLOAD,2023-12-08 01:02:25,15.08839063,0.0001692,53.2152,202.0429,110.621,249.4964,3.9224e-05,3.36e-06,0.0,0 STARLINK-3746,1 52268U 22041H   23342.04335149  .00000336  00000-0  39224-4 0  9991,2 52268  53.2152 202.0429 0001692 110.6210 249.4964 15.08839063 90179,6917.883,95.438,540.919,538.578,0.0
52268.0,STARLINK-3746,PAYLOAD,2023-12-09 13:36:17,15.08835444,0.0001086,53.2152,195.2085,87.9642,272.1475,-5.7926e-05,-1.209e-05,0.0,0 STARLINK-3746,1 52268U 22041H   23343.56687232 -.00001209  00000-0 -57926-4 0  9993,2 52268  53.2152 195.2085 0001086  87.9642 272.1475 15.08835444 90407,6917.894,95.438,540.511,539.008,0.0
52268.0,STARLINK-3746,PAYLOAD,2023-12-09 16:47:04,15.08837343,0.0001327,53.2151,194.6144,74.8746,285.2393,-2.8766e-05,-7.46e-06,0.0,0 STARLINK-3746,1 52268U 22041H   23343.69935243 -.00000746  00000-0 -28766-4 0  9990,2 52268  53.2151 194.6144 0001327  74.8746 285.2393 15.08837343 91644,6917.889,95.438,540.672,538.836,0.0
52268.0,STARLINK-3746,PAYLOAD,2023-12-09 23:08:36,15.08836548,0.0001792,53.2147,193.4216,104.7483,255.3708,7.1749e-05,8.54e-06,0.0,0 STARLINK-3746,1 52268U 22041H   23343.96431570  .00000854  00000-0  71749-4 0  9991,2 52268  53.2147 193.4216 0001792 104.7483 255.3708 15.08836548 90466,6917.891,95.438,540.996,538.516,0.0
52268.0,STARLINK-3746,PAYLOAD,2023-12-10 19:48:34,15.08892095,0.0001558,53.2162,189.5584,81.0532,279.0636,0.00051687,7.959e-05,0.0,0 STARLINK-3746,1 52268U 22041H   23344.82539408  .00007959  00000-0  51687-3 0  9997,2 52268  53.2162 189.5584 0001558  81.0532 279.0636 15.08892095 91811,6917.721,95.434,540.664,538.508,0.0
52268.0,STARLINK-3746,PAYLOAD,2023-12-10 21:23:56,15.08893146,0.0001792,53.2157,189.2591,72.7367,287.3821,0.00053685,8.279e-05,0.0,0 STARLINK-3746,1 52268U 22041H   23344.89163124  .00008279  00000-0  53685-3 0  9998,2 52268  53.2157 189.2591 0001792  72.7367 287.3821 15.08893146 90605,6917.718,95.434,540.823,538.343,0.0
52268.0,STARLINK-3746,PAYLOAD,2023-12-11 19:39:24,15.08836816,0.0001425,53.2161,185.0984,71.0083,289.1064,-1.4421e-05,-5.17e-06,0.0,0 STARLINK-3746,1 52268U 22041H   23345.81902913 -.00000517  00000-0 -14421-4 0  9993,2 52268  53.2161 185.0984 0001425  71.0083 289.1064 15.08836816 91960,6917.89,95.438,540.741,538.769,0.0
52268.0,STARLINK-3746,PAYLOAD,2023-12-11 21:14:46,15.08841452,0.0001265,53.2161,184.8011,103.9865,256.1268,1.9613e-05,2.4e-07,0.0,0 STARLINK-3746,1 52268U 22041H   23345.88526316  .00000024  00000-0  19613-4 0  9998,2 52268  53.2161 184.8011 0001265 103.9865 256.1268 15.08841452 90751,6917.876,95.437,540.616,538.866,0.0
52268.0,STARLINK-3746,PAYLOAD,2023-12-12 19:30:10,15.08864093,0.0001501,53.2148,180.641,95.4221,264.6943,-0.00043868,-7.267e-05,0.0,0 STARLINK-3746,1 52268U 22041H   23346.81262431 -.00007267  00000-0 -43868-3 0  9993,2 52268  53.2148 180.6410 0001501  95.4221 264.6943 15.08864093 90892,6917.807,95.436,540.71,538.633,0.0
52268.0,STARLINK-3746,PAYLOAD,2023-12-13 19:20:58,15.08830802,0.0001575,53.2154,176.1782,97.136,262.9811,9.6735e-05,1.252e-05,0.0,0 STARLINK-3746,1 52268U 22041H   23347.80622882  .00001252  00000-0  96735-4 0  9991,2 52268  53.2154 176.1782 0001575  97.1360 262.9811 15.08830802 92264,6917.909,95.438,540.863,538.684,0.0
52268.0,STARLINK-3746,PAYLOAD,2023-12-14 19:11:45,15.08831863,0.000159,53.216,171.7114,103.0863,257.0306,7.853e-05,9.62e-06,0.0,0 STARLINK-3746,1 52268U 22041H   23348.79983501  .00000962  00000-0  78530-4 0  9998,2 52268  53.2160 171.7114 0001590 103.0863 257.0306 15.08831863 91196,6917.905,95.438,540.87,538.67,0.0
52268.0,STARLINK-3746,PAYLOAD,2023-12-15 19:02:32,15.08835827,0.000164,53.2162,167.2537,106.9928,253.1244,8.7112e-05,1.098e-05,0.0,0 STARLINK-3746,1 52268U 22041H   23349.79343746  .00001098  00000-0  87112-4 0  9997,2 52268  53.2162 167.2537 0001640 106.9928 253.1244 15.08835827 92561,6917.893,95.438,540.893,538.624,0.0
52268.0,STARLINK-3746,PAYLOAD,2023-12-16 18:53:20,15.08838157,0.0001575,53.2163,162.7938,103.3033,256.8135,0.00010302,1.352e-05,0.0,0 STARLINK-3746,1 52268U 22041H   23350.78703972  .00001352  00000-0  10302-3 0  9998,2 52268  53.2163 162.7938 0001575 103.3033 256.8135 15.08838157 91491,6917.886,95.438,540.841,538.661,0.0
52268.0,STARLINK-3746,PAYLOAD,2023-12-17 17:08:43,15.08845459,0.0001509,53.216,158.6303,104.8552,255.2608,6.243e-05,7.06e-06,0.0,0 STARLINK-3746,1 52268U 22041H   23351.71439771  .00000706  00000-0  62430-4 0  9997,2 52268  53.2160 158.6303 0001509 104.8552 255.2608 15.08845459 92859,6917.864,95.437,540.773,538.685,0.0
52268.0,STARLINK-3746,PAYLOAD,2023-12-18 18:34:54,15.08835889,0.0001575,53.2156,153.8719,83.7929,276.3242,0.00030396,4.552e-05,0.0,0 STARLINK-3746,1 52268U 22041H   23352.77424131  .00004552  00000-0  30396-3 0  9996,2 52268  53.2156 153.8719 0001575  83.7929 276.3242 15.08835889 93011,6917.893,95.438,540.848,538.668,0.0
52268.0,STARLINK-3746,PAYLOAD,2023-12-19 18:25:41,15.08838954,0.0001554,53.2162,149.417,75.8778,284.2386,1.3125e-05,-7.9e-07,0.0,0 STARLINK-3746,1 52268U 22041H   23353.76784450 -.00000079  00000-0  13125-4 0  9992,2 52268  53.2162 149.4170 0001554  75.8778 284.2386 15.08838954 93160,6917.884,95.438,540.824,538.674,0.0
52268.0,STARLINK-3746,PAYLOAD,2023-12-20 16:41:04,15.08851932,0.0001296,53.2158,145.2488,91.0321,269.082,3.3158e-05,2.4e-06,0.0,0 STARLINK-3746,1 52268U 22041H   23354.69519416  .00000240  00000-0  33158-4 0  9990,2 52268  53.2158 145.2488 0001296  91.0321 269.0820 15.08851932 93309,6917.844,95.437,540.605,538.812,0.0
52268.0,STARLINK-3746,PAYLOAD,2023-12-21 14:56:29,15.0884142,0.0001331,53.2164,141.0861,75.8534,284.2606,6.8977e-05,8.1e-06,0.0,0 STARLINK-3746,1 52268U 22041H   23355.62256032  .00000810  00000-0  68977-4 0  9996,2 52268  53.2164 141.0861 0001331  75.8534 284.2606 15.08841420 92223,6917.876,95.437,540.662,538.82,0.0
52268.0,STARLINK-3746,PAYLOAD,2023-12-22 14:47:19,15.08817785,0.0001572,53.2169,136.6262,68.1012,292.0147,-0.00013391,-2.417e-05,0.0,0 STARLINK-3746,1 52268U 22041H   23356.61619232 -.00002417  00000-0 -13391-3 0  9997,2 52268  53.2169 136.6262 0001572  68.1012 292.0147 15.08817785 92376,6917.948,95.439,540.901,538.726,0.0
52268.0,STARLINK-3746,PAYLOAD,2023-12-22 16:22:41,15.08821022,0.0001527,53.2165,136.3285,74.7595,285.3565,-0.00010938,-2.027e-05,0.0,0 STARLINK-3746,1 52268U 22041H   23356.68243012 -.00002027  00000-0 -10938-3 0  9994,2 52268  53.2165 136.3285 0001527  74.7595 285.3565 15.08821022 93608,6917.938,95.439,540.86,538.747,0.0
52268.0,STARLINK-3746,PAYLOAD,2023-12-23 09:51:55,15.08838808,0.0001542,53.2165,133.0598,69.664,290.4518,9.363e-05,1.202e-05,0.0,0 STARLINK-3746,1 52268U 22041H   23357.41105535  .00001202  00000-0  93630-4 0  9996,2 52268  53.2165 133.0598 0001542  69.6640 290.4518 15.08838808 93717,6917.884,95.438,540.816,538.682,0.0
52268.0,STARLINK-3746,PAYLOAD,2023-12-23 14:38:03,15.0885497,0.0001525,53.217,132.1652,87.8333,272.2834,0.00020633,2.999e-05,0.0,0 STARLINK-3746,1 52268U 22041H   23357.60976169  .00002999  00000-0  20633-3 0  9992,2 52268  53.2170 132.1652 0001525  87.8333 272.2834 15.08854970 92521,6917.835,95.437,540.755,538.645,0.0
52268.0,STARLINK-3746,PAYLOAD,2023-12-23 16:13:26,15.08855351,0.0001502,53.217,131.8681,85.4721,274.6443,0.00020797,3.025e-05,0.0,0 STARLINK-3746,1 52268U 22041H   23357.67600122  .00003025  00000-0  20797-3 0  9994,2 52268  53.2170 131.8681 0001502  85.4721 274.6443 15.08855351 93751,6917.833,95.437,540.738,538.659,0.0
52268.0,STARLINK-3746,PAYLOAD,2023-12-24 11:18:05,15.08841415,0.0001684,53.2159,128.3002,86.5759,273.5426,0.00028365,4.229e-05,0.0,0 STARLINK-3746,1 52268U 22041H   23358.47089140  .00004229  00000-0  28365-3 0  9990,2 52268  53.2159 128.3002 0001684  86.5759 273.5426 15.08841415 93878,6917.876,95.437,540.906,538.576,0.0
52268.0,STARLINK-3746,PAYLOAD,2023-12-24 14:28:50,15.08847149,0.0001539,53.2161,127.703,94.5021,265.6147,0.00030747,4.61e-05,0.0,0 STARLINK-3746,1 52268U 22041H   23358.60336622  .00004610  00000-0  30747-3 0  9996,2 52268  53.2161 127.7030 0001539  94.5021 265.6147 15.08847149 92674,6917.859,95.437,540.788,538.659,0.0
